# FY3D (LEO)
1 43010U 17072A   26175.26530988  .00000477  00000+0  24723-3 0  9995
2 43010  99.0129 149.8154 0002401  50.8041 309.3347 14.19742043445992

# FY3E (LEO)
1 49008U 21062A   26175.31885531  .00000002  00000+0  21684-4 0  9993
2 49008  98.7498 178.6474 0002817  73.8457 286.3029 14.19904912257595

# FY3F (LEO)
1 57490U 23111A   26175.30260569  .00000027  00000+0  33364-4 0  9996
2 57490  98.6834 245.1788 0001559  87.9729 272.1626 14.19940126149874

# FY3G (LEO)
1 56232U 23055A   26175.24957058  .00021166  00000+0  33996-3 0  9992
2 56232  49.9932 309.6241 0007172 326.0285  34.0222 15.52907569181107

# C2E1 (LEO)
1 44349U 19036L   26174.78130427  .00002163  00000+0  15970-3 0  9991
2 44349  23.9990 347.9379 0000438 251.1336 108.9117 14.96529519385640

# C2E2 (LEO)
1 44351U 19036N   26175.09286106  .00002164  00000+0  15988-3 0  9995
2 44351  23.9979 102.2566 0000358 258.4450 101.6011 14.96522171384625

# C2E3 (LEO)
1 44343U 19036E   26175.18911363  .00003522  00000+0  19129-3 0  9996
2 44343  23.9977 130.3456 0000721  26.8070 333.2471 15.09837331384303

# C2E4 (LEO)
1 44350U 19036M   26174.93716651  .00002265  00000+0  16852-3 0  9992
2 44350  23.9988  48.9919 0000880 270.8628  89.1772 14.96522163385083

# C2E5 (LEO)
1 44358U 19036V   26174.80308973  .00001836  00000+0  13164-3 0  9996
2 44358  23.9971 223.7781 0000120 163.1840 196.8664 14.96538122383345

# C2E6 (LEO)
1 44353U 19036Q   26174.95920841  .00002149  00000+0  15851-3 0  9994
2 44353  23.9979 283.9762 0001111 159.5941 200.4605 14.96536047382831

# G01 (GNSS)
1 62339U 24242A   26175.07163780 -.00000105  00000+0  00000+0 0  9995
2 62339  54.8449 333.9015 0017498   4.4663 175.6685  2.00571925 11398

# G02 (GNSS)
1 28474U 04045A   26174.75957648 -.00000105  00000+0  00000+0 0  9994
2 28474  55.1318 324.6314 0169898 316.5740  26.7212  2.00556268158558

# G03 (GNSS)
1 40294U 14068A   26174.90317331 -.00000094  00000+0  00000+0 0  9997
2 40294  56.9922  30.6959 0067192  70.8638 289.9134  2.00576712 85349

# G04 (GNSS)
1 43873U 18109A   26175.24218514 -.00000058  00000+0  00000+0 0  9994
2 43873  55.6863  91.9080 0038356 197.7698 340.0100  2.00562123 55211

# G05 (GNSS)
1 35752U 09043A   26174.61852273 -.00000097  00000+0  00000+0 0  9997
2 35752  56.2144  27.1991 0053789  83.4687 286.6867  2.00554013123495

# G06 (GNSS)
1 39741U 14026A   26173.94481660 -.00000099  00000+0  00000+0 0  9991
2 39741  56.4953 331.2933 0038130 326.4275  33.3264  2.00560629 88654

# G07 (GNSS)
1 32711U 08012A   26174.11880639  .00000072  00000+0  00000+0 0  9998
2 32711  54.4982 149.6877 0211378 247.9177 109.8083  2.00572612133875

# G08 (GNSS)
1 40730U 15033A   26174.70278474 -.00000061  00000+0  00000+0 0  9991
2 40730  53.9772 266.8177 0115132  30.2303 330.4654  2.00556019 80124

# G09 (GNSS)
1 40105U 14045A   26175.03379093 -.00000063  00000+0  00000+0 0  9997
2 40105  55.3575  88.1921 0033600 118.2393 242.1018  2.00558930 86217

# G10 (GNSS)
1 41019U 15062A   26173.76146143 -.00000097  00000+0  00000+0 0  9995
2 41019  56.9632  30.5963 0112067 231.0618 127.9803  2.00567128 77940

# G11 (GNSS)
1 48859U 21054A   26175.02578091 -.00000104  00000+0  00000+0 0  9993
2 48859  55.1708 332.1841 0025615 228.3259 158.0115  2.00568788 36895

# G12 (GNSS)
1 29601U 06052A   26172.90572389  .00000037  00000+0  00000+0 0  9990
2 29601  54.9339 213.8191 0085492  90.7942 270.2511  2.00558294143503

# G13 (GNSS)
1 24876U 97035A   26174.68316091 -.00000042  00000+0  00000+0 0  9990
2 24876  55.9981  98.3213 0102795  57.0630 303.9089  2.00563921212080

# G14 (GNSS)
1 46826U 20078A   26174.74953767  .00000065  00000+0  00000+0 0  9990
2 46826  53.9790 210.5121 0073734 207.4039 153.1814  2.00565058 41641

# G15 (GNSS)
1 32260U 07047A   26173.21082181 -.00000062  00000+0  00000+0 0  9990
2 32260  54.0988  79.8584 0166962  87.4865 274.4365  2.00555002136918

# G16 (GNSS)
1 27663U 03005A   26174.19910410  .00000051  00000+0  00000+0 0  9991
2 27663  54.8814 214.7299 0147991  53.0898  27.5702  2.00560308171437

# G17 (GNSS)
1 28874U 05038A   26174.29716620 -.00000072  00000+0  00000+0 0  9996
2 28874  54.8729 272.9307 0127942 296.2134  37.1387  2.00565318151958

# G18 (GNSS)
1 44506U 19056A   26174.86769734 -.00000103  00000+0  00000+0 0  9993
2 44506  55.6337 330.8764 0062316 197.6606 333.5530  2.00570063 50206

# G19 (GNSS)
1 28190U 04009A   26174.96904108 -.00000073  00000+0  00000+0 0  9999
2 28190  54.8239 275.4130 0116394 173.3953 256.1802  2.00554582163083

# G21 (GNSS)
1 64202U 25116A   26174.81582529 -.00000098  00000+0  00000+0 0  9995
2 64202  55.2396  30.8630 0008286 339.1810 199.1690  2.00575606  8009

# G22 (GNSS)
1 26407U 00040A   26174.28512105  .00000052  00000+0  00000+0 0  9992
2 26407  54.8508 214.9200 0120961 302.5244  64.1899  2.00557780190076

# G23 (GNSS)
1 45854U 20041A   26173.71775760 -.00000098  00000+0  00000+0 0  9998
2 45854  56.6735  28.7279 0064233 204.6080 154.4402  2.00558666 44144

# G24 (GNSS)
1 38833U 12053A   26174.79756486  .00000054  00000+0  00000+0 0  9995
2 38833  53.5871 143.3285 0180676  65.8518 296.0006  2.00567625 99579

# G25 (GNSS)
1 36585U 10022A   26175.18110001  .00000074  00000+0  00000+0 0  9994
2 36585  54.2699 208.2802 0126399  66.1241 109.1549  2.00562833117733

# G26 (GNSS)
1 40534U 15013A   26175.04292286  .00000077  00000+0  00000+0 0  9992
2 40534  53.1675 203.8938 0109701  40.1849 320.6852  2.00551017 81963

# G27 (GNSS)
1 39166U 13023A   26174.16610834 -.00000066  00000+0  00000+0 0  9994
2 39166  54.4992 268.7299 0141475  51.0504 310.2345  2.00563498 96000

# G28 (GNSS)
1 55268U 23009A   26174.93768975  .00000065  00000+0  00000+0 0  9993
2 55268  55.1237 148.2534 0006252 317.3029  43.8164  2.00571203 25382

# G29 (GNSS)
1 32384U 07062A   26175.02709910 -.00000070  00000+0  00000+0 0  9990
2 32384  55.0261 273.8775 0035822 166.0586 192.8031  2.00560588135649

# G30 (GNSS)
1 39533U 14008A   26174.66641729  .00000066  00000+0  00000+0 0  9997
2 39533  53.6556 149.0554 0084224 231.3654 127.8599  2.00560255 89819

# G31 (GNSS)
1 29486U 06042A   26175.13988986  .00000068  00000+0  00000+0 0  9996
2 29486  54.7116 151.0629 0106705  54.5858  65.8467  2.00569486144536

# G32 (GNSS)
1 41328U 16007A   26174.35143464 -.00000056  00000+0  00000+0 0  9992
2 41328  55.5273  89.2151 0095306 247.1068 111.8872  2.00551431 75960

# C06 (GNSS)
1 36828U 10036A   26174.90632499 -.00000049  00000+0  00000+0 0  9991
2 36828  54.3045 162.8981 0059220 225.3491 317.6812  1.00270075 58169

# C04 (GNSS)
1 37210U 10057A   26175.01789735 -.00000108  00000+0  00000+0 0  9995
2 37210   3.6646  68.9169 0004925 194.9940 174.6911  1.00271133 57363

# C07 (GNSS)
1 37256U 10068A   26174.58485275 -.00000229  00000+0  00000+0 0  9994
2 37256  47.5346 271.7512 0056069 213.1468 105.4665  1.00281206 56851

# C14 (GNSS)
1 38775U 12050B   26174.27419468 -.00000094  00000+0  00000+0 0  9991
2 38775  56.5495  62.6929 0013565 357.9958   2.0345  1.86231038 93420

# C01 (GNSS)
1 44231U 19027A   26175.01240313 -.00000242  00000+0  00000+0 0  9995
2 44231   1.6764  74.5292 0010066 283.7983  62.8140  1.00269331 26141

# C24 (GNSS)
1 43582U 18062B   26173.34014156  .00000091  00000+0  00000+0 0  9990
2 43582  54.0853 182.1173 0005022   8.9352 351.1006  1.86227655 53734

# C26 (GNSS)
1 43602U 18067A   26174.35247302  .00000100  00000+0  00000+0 0  9992
2 43602  54.1809 180.8309 0007830  29.6950 330.3768  1.86227676 53230

# C25 (GNSS)
1 43603U 18067B   26175.02451503  .00000103  00000+0  00000+0 0  9991
2 43603  54.1780 180.7717 0004529  12.6932 347.3467  1.86227182 53275

# C32 (GNSS)
1 43622U 18072A   26173.90540965 -.00000093  00000+0  00000+0 0  9993
2 43622  56.6296  62.4708 0007084 330.7929  29.2036  1.86231073 52765

# C33 (GNSS)
1 43623U 18072B   26172.15997682 -.00000080  00000+0  00000+0 0  9998
2 43623  56.6300  62.5228 0006120   1.7619 358.2786  1.86231110 52726

# C35 (GNSS)
1 43647U 18078A   26173.92607758 -.00000107  00000+0  00000+0 0  9998
2 43647  54.0841 299.7848 0007081  40.9691 319.0792  1.86232373 52261

# C34 (GNSS)
1 43648U 18078B   26174.59230597 -.00000108  00000+0  00000+0 0  9997
2 43648  54.0792 299.7617 0004045  57.9352 302.0986  1.86232473 52291

# C59 (GNSS)
1 43683U 18085A   26175.28516769 -.00000103  00000+0  00000+0 0  9994
2 43683   2.8873  97.1803 0008390 350.6074  87.2429  1.00270768 28134

# C36 (GNSS)
1 43706U 18093A   26174.29511074  .00000100  00000+0  00000+0 0  9999
2 43706  54.1694 182.0887 0010172 292.5726 119.7810  1.86228518 51654

# C37 (GNSS)
1 43707U 18093B   26174.61735332  .00000101  00000+0  00000+0 0  9992
2 43707  54.1701 182.0698 0008114 320.9628  39.0087  1.86226670 51651

# C38 (GNSS)
1 44204U 19023A   26175.54148515 -.00000226  00000+0  00000+0 0  9992
2 44204  58.7053  37.5725 0025748 224.9564 323.4804  1.00289953  7289

# C39 (GNSS)
1 44337U 19035A   26174.86225344 -.00000062  00000+0  00000+0 0  9990
2 44337  55.2489 158.8038 0039423 216.4706 326.6444  1.00264372 25737

# C46 (GNSS)
1 44542U 19061A   26173.61199497  .00000094  00000+0  00000+0 0  9992
2 44542  54.3965 182.5445 0008447 358.6197   1.4065  1.86229121 45898

# C45 (GNSS)
1 44543U 19061B   26174.55218917  .00000102  00000+0  00000+0 0  9996
2 44543  54.3954 182.4810 0005823 338.7823 203.1503  1.86227312 45913

# C44 (GNSS)
1 44793U 19078A   26173.98886353 -.00000107  00000+0  00000+0 0  9998
2 44793  53.9301 299.6233 0006249  51.2109 308.8401  1.86227077 44757

# C43 (GNSS)
1 44794U 19078B   26171.44396153 -.00000092  00000+0  00000+0 0  9995
2 44794  53.9054 299.6746 0003921  48.8810 311.1504  1.86227692 44717

# C41 (GNSS)
1 44864U 19090A   26175.14393486 -.00000095  00000+0  00000+0 0  9997
2 44864  56.5651  62.5599 0017616 297.8463 220.1810  1.86231464 44368

# C42 (GNSS)
1 44865U 19090B   26174.50609265 -.00000095  00000+0  00000+0 0  9992
2 44865  56.5662  62.6156 0015378 312.2472 227.7273  1.86231503 44333
